STARLINK-1261
1 25571C 20025AS  21325.12482131  .00002688  00000-0  18005-3 0  3250
2 25571  53.0538 282.6813 0001720  67.2326 236.3193 15.06398487    13
